CCSDS_OMM_VERS = 2.0
CREATION_DATE  = 
ORIGINATOR     = 

OBJECT_NAME    = SL-3 R/B
OBJECT_ID      = 1988-032B
CENTER_NAME    = EARTH
REF_FRAME      = TEME
TIME_SYSTEM    = UTC
MEAN_ELEMENT_THEORY = SGP/SGP4

EPOCH          = 2026-03-18T21:12:01.545408
MEAN_MOTION    = 15.20011312
ECCENTRICITY   = .0025263
INCLINATION    = 97.5200
RA_OF_ASC_NODE = 61.1025
ARG_OF_PERICENTER = 198.0017
MEAN_ANOMALY   = 162.0326

EPHEMERIS_TYPE = 0
CLASSIFICATION_TYPE = U
NORAD_CAT_ID   = 19046
ELEMENT_SET_NO = 999
REV_AT_EPOCH   = 5350
BSTAR          = .20328E-3
MEAN_MOTION_DOT = .4345E-4
MEAN_MOTION_DDOT = 0

CCSDS_OMM_VERS = 2.0
CREATION_DATE  = 
ORIGINATOR     = 

OBJECT_NAME    = SL-16 R/B
OBJECT_ID      = 1988-039B
CENTER_NAME    = EARTH
REF_FRAME      = TEME
TIME_SYSTEM    = UTC
MEAN_ELEMENT_THEORY = SGP/SGP4

EPOCH          = 2026-03-18T15:31:58.829952
MEAN_MOTION    = 14.19617780
ECCENTRICITY   = .0023208
INCLINATION    = 71.0148
RA_OF_ASC_NODE = 49.6051
ARG_OF_PERICENTER = 321.3925
MEAN_ANOMALY   = 38.5539

EPHEMERIS_TYPE = 0
CLASSIFICATION_TYPE = U
NORAD_CAT_ID   = 19120
ELEMENT_SET_NO = 999
REV_AT_EPOCH   = 95965
BSTAR          = .16503E-4
MEAN_MOTION_DOT = -.13E-6
MEAN_MOTION_DDOT = 0

CCSDS_OMM_VERS = 2.0
CREATION_DATE  = 
ORIGINATOR     = 

OBJECT_NAME    = COSMOS 1953
OBJECT_ID      = 1988-050A
CENTER_NAME    = EARTH
REF_FRAME      = TEME
TIME_SYSTEM    = UTC
MEAN_ELEMENT_THEORY = SGP/SGP4

EPOCH          = 2026-03-18T11:06:34.735392
MEAN_MOTION    = 15.28668002
ECCENTRICITY   = .00126595
INCLINATION    = 82.5100
RA_OF_ASC_NODE = 149.4239
ARG_OF_PERICENTER = 95.0796
MEAN_ANOMALY   = 265.1889

EPHEMERIS_TYPE = 0
CLASSIFICATION_TYPE = U
NORAD_CAT_ID   = 19210
ELEMENT_SET_NO = 999
REV_AT_EPOCH   = 3912
BSTAR          = .20809881E-3
MEAN_MOTION_DOT = .5846E-4
MEAN_MOTION_DDOT = 0

CCSDS_OMM_VERS = 2.0
CREATION_DATE  = 
ORIGINATOR     = 

OBJECT_NAME    = SL-8 R/B
OBJECT_ID      = 1988-053B
CENTER_NAME    = EARTH
REF_FRAME      = TEME
TIME_SYSTEM    = UTC
MEAN_ELEMENT_THEORY = SGP/SGP4

EPOCH          = 2026-03-18T18:51:38.036160
MEAN_MOTION    = 14.38921740
ECCENTRICITY   = .0021541
INCLINATION    = 74.0450
RA_OF_ASC_NODE = 95.6980
ARG_OF_PERICENTER = 273.8298
MEAN_ANOMALY   = 259.2661

EPHEMERIS_TYPE = 0
CLASSIFICATION_TYPE = U
NORAD_CAT_ID   = 19257
ELEMENT_SET_NO = 999
REV_AT_EPOCH   = 97790
BSTAR          = .99274E-4
MEAN_MOTION_DOT = .28E-5
MEAN_MOTION_DDOT = 0

CCSDS_OMM_VERS = 2.0
CREATION_DATE  = 
ORIGINATOR     = 

OBJECT_NAME    = COSMOS 1975
OBJECT_ID      = 1988-093A
CENTER_NAME    = EARTH
REF_FRAME      = TEME
TIME_SYSTEM    = UTC
MEAN_ELEMENT_THEORY = SGP/SGP4

EPOCH          = 2026-03-18T19:50:28.738464
MEAN_MOTION    = 15.28189480
ECCENTRICITY   = .0012927
INCLINATION    = 82.5164
RA_OF_ASC_NODE = 108.5105
ARG_OF_PERICENTER = 133.3578
MEAN_ANOMALY   = 226.8740

EPHEMERIS_TYPE = 0
CLASSIFICATION_TYPE = U
NORAD_CAT_ID   = 19573
ELEMENT_SET_NO = 999
REV_AT_EPOCH   = 2080
BSTAR          = .19236E-3
MEAN_MOTION_DOT = .5329E-4
MEAN_MOTION_DDOT = 0

CCSDS_OMM_VERS = 2.0
CREATION_DATE  = 
ORIGINATOR     = 

OBJECT_NAME    = SL-14 R/B
OBJECT_ID      = 1988-093B
CENTER_NAME    = EARTH
REF_FRAME      = TEME
TIME_SYSTEM    = UTC
MEAN_ELEMENT_THEORY = SGP/SGP4

EPOCH          = 2026-03-18T21:18:36.343296
MEAN_MOTION    = 14.85667655
ECCENTRICITY   = .0021013
INCLINATION    = 82.5324
RA_OF_ASC_NODE = 33.4094
ARG_OF_PERICENTER = 12.1867
MEAN_ANOMALY   = 40.8415

EPHEMERIS_TYPE = 0
CLASSIFICATION_TYPE = U
NORAD_CAT_ID   = 19574
ELEMENT_SET_NO = 999
REV_AT_EPOCH   = 238
BSTAR          = .57054E-4
MEAN_MOTION_DOT = .521E-5
MEAN_MOTION_DDOT = 0

CCSDS_OMM_VERS = 2.0
CREATION_DATE  = 
ORIGINATOR     = 

OBJECT_NAME    = SL-16 R/B
OBJECT_ID      = 1988-102B
CENTER_NAME    = EARTH
REF_FRAME      = TEME
TIME_SYSTEM    = UTC
MEAN_ELEMENT_THEORY = SGP/SGP4

EPOCH          = 2026-03-18T21:00:47.158848
MEAN_MOTION    = 14.16156063
ECCENTRICITY   = .001462
INCLINATION    = 70.9990
RA_OF_ASC_NODE = 132.1700
ARG_OF_PERICENTER = 347.2285
MEAN_ANOMALY   = 12.8466

EPHEMERIS_TYPE = 0
CLASSIFICATION_TYPE = U
NORAD_CAT_ID   = 19650
ELEMENT_SET_NO = 999
REV_AT_EPOCH   = 92819
BSTAR          = .20039E-5
MEAN_MOTION_DOT = -.44E-6
MEAN_MOTION_DDOT = 0

CCSDS_OMM_VERS = 2.0
CREATION_DATE  = 
ORIGINATOR     = 

OBJECT_NAME    = INTERCOSMOS 24
OBJECT_ID      = 1989-080A
CENTER_NAME    = EARTH
REF_FRAME      = TEME
TIME_SYSTEM    = UTC
MEAN_ELEMENT_THEORY = SGP/SGP4

EPOCH          = 2026-03-18T11:03:02.708928
MEAN_MOTION    = 12.59570718
ECCENTRICITY   = .11866711
INCLINATION    = 82.6017
RA_OF_ASC_NODE = 98.6913
ARG_OF_PERICENTER = 272.4415
MEAN_ANOMALY   = 74.1646

EPHEMERIS_TYPE = 0
CLASSIFICATION_TYPE = U
NORAD_CAT_ID   = 20261
ELEMENT_SET_NO = 999
REV_AT_EPOCH   = 66790
BSTAR          = .17467036E-3
MEAN_MOTION_DOT = .587E-5
MEAN_MOTION_DDOT = 0

CCSDS_OMM_VERS = 2.0
CREATION_DATE  = 
ORIGINATOR     = 

OBJECT_NAME    = SL-14 R/B
OBJECT_ID      = 1989-080C
CENTER_NAME    = EARTH
REF_FRAME      = TEME
TIME_SYSTEM    = UTC
MEAN_ELEMENT_THEORY = SGP/SGP4

EPOCH          = 2026-03-18T08:35:29.726880
MEAN_MOTION    = 12.50503429
ECCENTRICITY   = .12307757
INCLINATION    = 82.5967
RA_OF_ASC_NODE = 167.6237
ARG_OF_PERICENTER = 164.9438
MEAN_ANOMALY   = 199.2059

EPHEMERIS_TYPE = 0
CLASSIFICATION_TYPE = U
NORAD_CAT_ID   = 20262
ELEMENT_SET_NO = 999
REV_AT_EPOCH   = 66123
BSTAR          = .1344201E-3
MEAN_MOTION_DOT = .469E-5
MEAN_MOTION_DDOT = 0

CCSDS_OMM_VERS = 2.0
CREATION_DATE  = 
ORIGINATOR     = 

OBJECT_NAME    = DELTA 1 R/B
OBJECT_ID      = 1989-089B
CENTER_NAME    = EARTH
REF_FRAME      = TEME
TIME_SYSTEM    = UTC
MEAN_ELEMENT_THEORY = SGP/SGP4

EPOCH          = 2026-03-18T14:06:15.686784
MEAN_MOTION    = 14.50670691
ECCENTRICITY   = .0070718
INCLINATION    = 97.0699
RA_OF_ASC_NODE = 283.6107
ARG_OF_PERICENTER = 94.4002
MEAN_ANOMALY   = 266.5280

EPHEMERIS_TYPE = 0
CLASSIFICATION_TYPE = U
NORAD_CAT_ID   = 20323
ELEMENT_SET_NO = 999
REV_AT_EPOCH   = 89702
BSTAR          = .94494E-4
MEAN_MOTION_DOT = .348E-5
MEAN_MOTION_DDOT = 0

CCSDS_OMM_VERS = 2.0
CREATION_DATE  = 
ORIGINATOR     = 

OBJECT_NAME    = ARIANE 40 R/B
OBJECT_ID      = 1990-005H
CENTER_NAME    = EARTH
REF_FRAME      = TEME
TIME_SYSTEM    = UTC
MEAN_ELEMENT_THEORY = SGP/SGP4

EPOCH          = 2026-03-18T13:39:55.543104
MEAN_MOTION    = 14.39876257
ECCENTRICITY   = .0010408
INCLINATION    = 98.3064
RA_OF_ASC_NODE = 137.9655
ARG_OF_PERICENTER = 171.5598
MEAN_ANOMALY   = 188.5768

EPHEMERIS_TYPE = 0
CLASSIFICATION_TYPE = U
NORAD_CAT_ID   = 20443
ELEMENT_SET_NO = 999
REV_AT_EPOCH   = 89408
BSTAR          = .88573E-4
MEAN_MOTION_DOT = .236E-5
MEAN_MOTION_DDOT = 0

CCSDS_OMM_VERS = 2.0
CREATION_DATE  = 
ORIGINATOR     = 

OBJECT_NAME    = DELTA 2 R/B(1)
OBJECT_ID      = 1990-008B
CENTER_NAME    = EARTH
REF_FRAME      = TEME
TIME_SYSTEM    = UTC
MEAN_ELEMENT_THEORY = SGP/SGP4

EPOCH          = 2026-03-18T19:16:07.447008
MEAN_MOTION    = 15.57130229
ECCENTRICITY   = .0082024
INCLINATION    = 35.6024
RA_OF_ASC_NODE = 114.9908
ARG_OF_PERICENTER = 343.0931
MEAN_ANOMALY   = 16.7077

EPHEMERIS_TYPE = 0
CLASSIFICATION_TYPE = U
NORAD_CAT_ID   = 20453
ELEMENT_SET_NO = 999
REV_AT_EPOCH   = 92755
BSTAR          = .54577E-3
MEAN_MOTION_DOT = .48118E-3
MEAN_MOTION_DDOT = 0

